FIX_CNTL_NUMBER,OLD_NAME,NEW_NAME,PUB_DT,lat_dec_deg,lon_dec_deg,city,state
1497,OHENU,CFVPP,4/27/2017,27.86656667,-81.08786389,Whittier, FL
3523,UPTON,HOPEK,7/16/2020,31.5063,-82.79002222,Douglas, GA
3741,AGUAS,FISPI,11/5/2020,31.89610833,-106.2676917,Homestead Meadows North, TX
3763,ACORN,SPWAY,9/10/2020,31.92292222,-95.29681667,Jacksonville, TX
4254,IJBEW,BLSKY,4/25/2019,32.56308611,-83.82141944,Fort Valley, GA
4318,EHVEZ,ALLMN,4/25/2019,32.62933333,-83.734875,Byron, GA
4542,ADDIS,NRTHH,9/7/2023,32.80202222,-96.76386667,Dallas, TX
5158,ROPSS,ANDYA,12/29/2022,33.40188611,-96.11958333,Wolfe City, TX
5455,SOAKS,SODDY,2/4/2016,33.61700556,-90.39842222,Schlater, MS
5736,BOTAW,CFCJF,10/5/2023,33.86169444,-106.9110639,San Antonito, NM
5883,LIMMA,JIANA,2/25/2021,33.94846083,-118.2735678,Los Angeles, CA
5883,JIANA,GIGII,5/20/2021,33.94846083,-118.2735678,Los Angeles, CA
6394,RAPEN,JAYDB,12/6/2018,34.32169444,-78.36316944,Bolton, NC
6648,ADULT,TODYY,10/5/2023,34.57897222,-89.51654722,Abbeville, MS
7145,COVIM,GRIIT,11/30/2023,35.05131111,-89.73430833,Collierville, TN
7381,BLEWS,MCVEY,3/5/2015,35.26278056,-89.99204444,Memphis, TN
7900,BARNS,JABDO,5/21/2020,35.74215833,-96.44925833,Gypsy, OK
8963,KAMLY,STERL,11/3/2022,36.69300528,-94.021755,Exeter, MO
9050,EFFCO,COKPT,11/3/2022,36.80980972,-94.01758167,Purdy, MO
9247,JFOXX,SOFWR,11/3/2022,36.99933167,-94.01078361,Pierce City, MO
9331,REXXX,PHENM,11/3/2022,37.0994175,-94.00718028,Stotts City, MO
9832,AFEWU,HELVA,6/22/2017,37.58985667,-121.3025125,Manteca, CA
10273,DARRY,KASKL,9/13/2018,38.00329167,-87.59801667,Evansville, IN
11044,TRAKE,KOOOP,10/12/2017,38.69190556,-91.74258056,Chamois, MO
11207,CROFT,PADVE,2/25/2021,38.79420833,-76.97800278,Fort Washington, MD
12282,GAYLY,TUSKG,12/2/2021,39.56019444,-94.62621667,Gower, MO
15019,KLINE,KLOEE,5/24/2018,41.26356667,-84.19396389,Holgate, OH
15630,RUBER,CAMMO,9/13/2018,41.62550278,-74.55091667,Rock Hill, NY
15725,CAVVS,CALVS,12/10/2015,41.68406389,-83.56904722,Toledo, OH
15973,PUMKN,TODDO,9/15/2016,41.84232222,-95.35872222,Defiance, IA
16244,COYNU,CATRO,6/22/2017,42.03689444,-85.06010278,Coldwater, MI
16244,COYNU,CFLTH,3/24/2022,42.03689444,-85.06010278,Coldwater, MI
17932,GIWFI,FEZNT,12/2/2021,43.40496667,-96.62543611,Harrisburg, SD
17961,DEZZO,OXIWE,8/20/2015,43.45496361,-85.07140694,Wyman, MI
18721,UCCOX,YUDUL,4/30/2015,44.60596944,-69.893175,Rome, ME
18785,UNION,BFFLO,1/8/2015,44.72481667,-102.9527028,Union Center, SD
18865,CECIL,WISOM,4/25/2019,44.82469167,-88.504475,Shawano, WI
19273,SEXPE,SCUDZ,12/29/2022,45.60016389,-108.0206444,Hardin, MT
19693,CFGAD,WYGEE,1/27/2022,46.57809444,-105.6573778,Kinsey, MT
19896,AYIHE,CFBPC,8/10/2023,47.09983056,-92.35300278,Shaw, MN
19927,AFGAP,CFCFF,10/15/2015,47.16278611,-122.7333278,Anderson Island, WA
20099,ABORN,UYIGI,1/8/2015,47.59112778,-111.2032472,Great Falls, MT
20171,SWAUK,ODAHL,9/15/2016,47.82788611,-120.7985778,Telma, WA
20892,SUWWO,ZEVOD,9/10/2020,61.54780833,-160.0374389,N/A,
23351,NADIA,MHILL,3/26/2020,35.12842806,-118.0580597,California City, CA
23514,SQUAW,TARRS,10/5/2023,44.31284167,-99.01395278,Ames, SD
23627,EHJOJ,FLIMM,10/5/2023,34.479175,-89.52696111,Abbeville, MS
23647,MAFXO,GLLLM,10/5/2023,34.38488056,-89.53677778,Oxford, MS
23679,NULME,NEDUE,2/4/2016,33.6286,-90.18037778,Money, MS
23680,NUMXO,LAARI,2/4/2016,33.48273056,-90.49535833,Moorhead, MS
24058,MACWO,CFVPW,9/15/2016,34.08179167,-118.0365833,El Monte, CA
24162,IZZOM,PERRL,6/17/2021,34.45054722,-109.0479917,Saint Johns, AZ
24222,MAHKU,CFVFM,9/15/2016,34.08593333,-118.0323,El Monte, CA
24474,NUPUQ,TUCKB,1/8/2015,47.39821944,-111.6836806,Ulm, MT
25262,KOVYE,WILOP,5/24/2018,40.053375,-98.31208889,Guide Rock, NE
25622,DOSEL,MYZKA,6/17/2021,44.27289167,-88.01724167,Morrison, WI
26469,SEWRU,SAWSH,9/10/2020,41.75971694,-97.41189,Madison, NE
26471,SIKAZ,ROTTA,9/10/2020,42.06664361,-97.73479972,Meadow Grove, NE
26472,SIMZU,REDII,9/10/2020,42.21703889,-97.50243889,Pierce, NE
26481,VEDTI,YANKK,9/10/2020,42.13393889,-97.18531389,Winside, NE
26482,VEFMA,URONN,9/10/2020,42.22121444,-97.47060667,Pierce, NE
26483,VEGRY,RREVV,9/10/2020,41.91360833,-97.14824417,Stanton, NE
26484,VEPCU,VAUNN,9/10/2020,41.76006222,-97.36273222,Madison, NE
26500,EMETE,BLLIS,2/23/2023,35.28861667,-89.38094167,Somerville, TN
26502,OPTAW,RSTEE,2/23/2023,35.42090278,-89.35878333,Zu Zu, TN
29210,MAJEM,CFRJM,5/24/2018,40.52244444,-82.84525556,Mount Gilead, OH
29302,VOGNU,PGLSI,7/21/2016,35.33145,-97.52685278,Oklahoma City, OK
29304,WUYAS,ELUCK,3/3/2016,35.45168889,-97.67333889,Oklahoma City, OK
29413,FELUR,MAZOU,12/7/2017,39.38662778,-94.67784722,Kansas City, MO
29904,WORDI,BARJR,2/4/2016,40.76522028,-73.67345583,Roslyn, NY
30198,WITZI,WZDOM,8/15/2019,29.6865,-95.06577222,La Porte, TX
31092,OYAVY,KROAK,10/5/2023,36.30916361,-95.8922975,Tulsa, OK
31653,JETSA,KOBBB,2/25/2021,33.96498278,-118.2754289,Los Angeles, CA
31653,KOBBB,KOBEE,5/20/2021,33.96498278,-118.2754289,Los Angeles, CA
32860,HLDOL,CFCJN,8/10/2023,48.60387778,-93.42113611,Fort Frances, ON
33349,TOUGH,SWTHN,12/5/2019,46.23288611,-105.2145278,Mizpah, MT
33545,LEKME,EKJAY,4/27/2017,21.32501944,-158.2199361,Nānākuli, HI
33797,CDSCC,CFRTQ,4/25/2019,49.00033333,-95.89891667,Wampum, MB
33798,JGKGR,CFFQV,11/30/2023,48.59071667,-93.47093889,Fort Frances, ON
33802,JGTSC,ARBBY,8/12/2021,48.62481944,-93.008775,N/A,
33805,RNPSB,CFBPF,9/10/2020,45.013225,-71.51876944,Canaan, VT
33808,MWNNV,CFCHM,8/17/2017,42.64581667,-79.42146111,N/A,
33899,KDNKD,CFDTS,11/30/2023,48.59968056,-93.42903611,International Falls, MN
34069,DCDGG,DEPRI,11/8/2018,45.9537,-70.25661944,Saint-Théophile, QC
34083,COLDI,BUHRS,7/21/2016,44.685785,-124.0658628,Newport, OR
34100,HIMLA,SHRLE,3/2/2017,29.44469167,-98.21595556,Saint Hedwig, TX
34226,OLDAE,KVERN,2/4/2016,39.87485833,-104.3446944,Strasburg, CO
34274,JOBEL,SCRBY,1/30/2020,43.09641389,-76.46771111,Jordan, NY
35806,IPNAW,CFBZK,3/5/2015,33.30366667,-117.8801667,N/A,
36936,DECKE,PTREO,6/20/2019,30.52198611,-88.10386111,Theodore, AL
37842,COREK,WUPUP,7/21/2016,46.65379167,-67.73266111,Perth-Andover, NB
38024,JAGOS,POGEE,2/25/2021,33.60173861,-81.88287028,North Augusta, SC
38030,KEBKE,WASAP,2/25/2021,33.55385472,-82.15622667,Evans, GA
38150,BUVAY,SWLTR,9/15/2016,28.524275,-81.388,Orlando, FL
38838,NAVYE,SPERA,3/29/2018,32.78270833,-96.99501389,Grand Prairie, TX
45748,CEVSA,UHEFY,9/13/2018,42.88695528,-87.61706306,N/A,
45994,JEDSU,SHERK,5/24/2018,41.48878333,-81.73275556,Cleveland, OH
46058,DEYAP,ZOLBO,9/13/2018,42.73967528,-87.83712139,Mount Pleasant, WI
51322,WPACA,CUTTS,7/16/2020,44.33900056,-89.16537333,Waupaca, WI
52662,ZIXUB,CFBTX,3/5/2015,45.72411667,-87.47028333,Wilson, MI
54930,EYIYA,CFCGG,1/5/2017,35.37931667,-106.2927278,Placitas, NM
55129,KAYWY,WAVIN,9/13/2018,28.17,-81.41944444,Poinciana, FL
55130,PACCA,DREKS,9/13/2018,28.51777778,-81.42416667,Orlando, FL
55131,SHBAG,SPYDR,9/13/2018,28.34805556,-81.42416667,Orlando, FL
55373,HIPPE,AYAYE,6/17/2021,38.42206389,-103.9251972,Olney Springs, CO
55557,FEXAK,GAALO,8/17/2017,40.66929083,-73.736055,New York, NY
55611,OTICI,BCOAT,6/22/2017,37.04363611,-76.52229444,Newport News, VA
58487,NICHY,PEAKK,7/14/2022,47.35216667,-122.3096667,Federal Way, WA
59265,TRYBE,YYOUR,8/20/2015,41.66908611,-82.68325556,Kelleys Island, OH
59471,IBIYA,ETEEN,10/5/2023,34.38557944,-89.64390278,Oxford, MS
59510,FOVAB,GROVV,10/5/2023,34.38145278,-89.3149,Thaxton, MS
59541,ZAGUM,VAUHT,10/5/2023,34.38307028,-89.4357075,Oxford, MS
59616,CDMFJ,CFCFH,8/20/2015,41.68693111,-87.36233611,East Chicago, IN
59716,NITER,NNATE,8/15/2019,32.90765278,-96.91524167,Farmers Branch, TX
59770,DEBBB,VKTRY,3/31/2016,33.3839,-97.64171111,Alvord, TX
60165,JELVU,ANGGL,11/10/2016,42.28730528,-83.32536139,Inkster, MI
60640,MFJDD,CFBZC,6/25/2015,41.69144722,-87.46090556,East Chicago, IN
61082,MAXWL,CFBWL,12/10/2015,64.648,-150.5023333,MANLEY SPGS, AK
61176,REHKY,AYBIN,7/19/2018,46.11046944,-124.0310972,Warrenton, OR
61178,REDMY,JINOD,7/19/2018,46.23502222,-124.0109917,Warrenton, OR
61184,TEKVY,CFFDN,1/5/2017,35.67307778,-106.0454917,Santa Fe, NM
62623,OCETO,CFCDC,10/15/2015,57.74053056,-151.9613639,N/A,
63290,WISBA,JISTA,8/17/2017,47.24664417,-122.2050264,Auburn, WA
63564,ZARIS,HATLE,12/28/2023,44.10813056,-70.228425,Auburn, ME
63769,GIPYE,CFCDL,2/4/2016,33.90402778,-118.7046583,N/A,
63816,ACISU,CFCDN,2/4/2016,33.89282778,-118.8319778,Malibu, CA
63817,DITDA,CFBHJ,2/4/2016,33.90648333,-118.7023556,Malibu, CA
63901,YOPUN,RUTHV,11/3/2022,27.75720278,-82.64631389,St. Petersburg, FL
64739,OLOYI,ZIKAB,10/7/2021,21.74881389,-158.9532806,N/A,
65457,HASTY,JAYCI,4/22/2021,33.00199444,-97.05028889,Flower Mound, TX
65574,COFGI,CFCHK,8/17/2017,42.38325833,-82.81833056,Tecumseh, ON
65941,JEGIP,CFCDX,2/4/2016,34.02923611,-117.4713139,Jurupa Valley, CA
65961,JUBIT,CFCFQ,11/10/2016,44.64504444,-105.6169139,Wildcat, WY
66341,CAPOG,BBAMA,4/20/2023,33.07106389,-87.76275556,Ralph, AL
66998,FFKHH,CFBKM,8/18/2016,32.12383333,-106.7241028,La Mesa, NM
67136,DMBMZ,CFCDZ,7/21/2016,44.84178333,-124.07615,Lincoln Beach, OR
68947,YIYUY,CFVKH,4/27/2017,44.99334167,-69.09816944,Exeter, ME
69357,JATIK,CFCFD,7/21/2016,43.68755833,-110.6789667,Beaver Creek, WY
69641,IYODU,CFCFR,2/4/2016,33.90707778,-118.8346667,Malibu, CA
69739,KOYEV,CFDRL,2/4/2016,33.92259167,-118.6872556,Malibu, CA
70289,JIVRA,CFVPV,1/5/2017,47.00222778,-88.20695278,Torch Lake Township, MI
70483,YOVNU,AYRMN,12/2/2021,39.50916667,-94.64142222,Edgerton, MO
70484,ZASBO,MGEEE,12/2/2021,39.45813056,-94.65660833,Edgerton, MO
70735,BHTYR,CFCGJ,4/27/2017,40.77423889,-85.45393611,Huntington, IN
71255,PEYIB,YETVU,3/5/2015,36.31871667,-78.79209444,Moriah, NC
71256,OYICI,WEGIT,3/5/2015,36.16286944,-78.63680278,Creedmoor, NC
71261,TOCUG,ZEPLA,3/5/2015,36.56036111,-78.42066944,Clarksville, VA
71277,CIVUR,TMAAC,3/5/2015,36.40401667,-78.265675,Soul City, NC
71379,VUSCU,CFCFZ,11/10/2016,55.59287778,-132.1256167,N/A,
71424,JOMLO,PKRNA,9/15/2016,43.64558611,-91.2556,Stoddard, WI
74114,ACASU,OSMSS,9/10/2020,37.13782778,-80.23829167,Shawsville, VA
77027,AZAWI,CFCJT,5/24/2018,47.07621111,-114.80725,Riverbend, MT
77646,UBMEF,CFFPS,8/12/2021,26.73466444,-80.2149975,Royal Palm Beach, FL
77647,UJSON,FSSTR,8/10/2023,42.40183611,-114.216425,Artesian City, ID
77733,ARXEV,CFDSQ,5/24/2018,46.85194722,-114.0642861,Missoula, MT
77734,DMGWL,CFDSZ,5/24/2018,47.26211111,-114.4432056,Dixon, MT
77735,DMJYF,CFDSK,5/24/2018,46.69685556,-113.9671472,Lolo, MT
77736,AVYEH,CFDSC,5/24/2018,46.72560556,-113.9725389,Lolo, MT
77766,CLKVL,CFFLP,8/12/2021,26.72841778,-79.99451944,Palm Beach, FL
77887,ALWIJ,CFGBD,11/10/2016,47.52940444,-120.21127,Wenatchee, WA
77889,XUVDY,CFVBS,11/10/2016,47.53729472,-120.1403444,Orondo, WA
77890,GZPND,CFVBB,11/10/2016,47.48913861,-120.2679831,Wenatchee, WA
78002,AWQEV,CFVFW,11/10/2016,47.38683944,-120.1426661,Rock Island, WA
78003,EBZAJ,CFDSN,11/10/2016,47.34194278,-120.1393275,Rock Island, WA
78004,DMFEM,CFGBT,11/10/2016,47.49392722,-120.2361122,Wenatchee, WA
78010,UFIRD,CRRMN,10/15/2015,26.67898333,-80.01220278,Palm Beach, FL
78013,DONLD,RIDRR,10/15/2015,26.74921667,-79.93522222,West Palm Beach, FL
78015,IVNKA,SLIDZ,10/15/2015,26.92364167,-79.708525,N/A,
78016,TRMMP,RBACK,10/15/2015,26.81216944,-79.87153056,N/A,
78098,EQDIJ,CFBDT,12/10/2015,43.21968889,-109.0083944,Kinnear, WY
78123,AYUWA,CFLBG,11/10/2016,47.30290833,-119.9561533,Quincy, WA
78124,EMXAF,CFFZK,11/10/2016,47.31207667,-119.9792056,Appledale, WA
78133,JUTAX,YOUNT,8/10/2023,42.73777778,-87.93048611,Mount Pleasant, WI
78156,CODUT,CFTVF,10/7/2021,46.40100278,-116.855575,Lapwai, ID
78435,SAWJE,CFNQJ,10/7/2021,46.32215833,-117.1802861,Clarkston Heights-Vineland, WA
78570,HEPEL,CFTTH,10/7/2021,46.556875,-117.1373889,Colton, WA
78571,RENLE,CFTWT,10/7/2021,46.55011667,-117.1236111,Colton, WA
78572,CUGEM,CFFWX,10/7/2021,46.54023889,-117.1258194,Uniontown, WA
78573,KEDGY,CFLJN,10/7/2021,46.51585556,-117.111575,Uniontown, WA
78601,TIKAE,ACOSA,9/15/2016,38.60835278,-79.05489167,Rawley Springs, VA
78993,NAKSE,CFRZN,3/2/2017,34.11675278,-85.77613889,Leesburg, AL
79041,FESEP,ASESY,1/3/2019,30.37495556,-97.53601389,Manor, TX
79597,GUBTE,CFLTB,1/5/2017,34.05172222,-101.8315889,Hale Center, TX
80724,EGXOV,CFRQX,10/12/2017,35.20227583,-101.8116761,Amarillo, TX
80725,BBBBB,CFLTT,10/12/2017,35.14011833,-101.739095,Amarillo, TX
80726,EHHIJ,CFVHT,10/12/2017,35.23389667,-101.62033,Amarillo, TX
80727,DMBCL,CFRKC,10/12/2017,35.29648611,-101.6933025,Amarillo, TX
80729,EKQOJ,CFPGN,10/12/2017,35.29529778,-101.6989742,Amarillo, TX
80730,FEZSS,CFVST,10/12/2017,35.23629056,-101.7755433,Amarillo, TX
80731,GIWJE,CFPJH,10/12/2017,35.14807139,-101.6770339,Amarillo, TX
80732,HIQZI,CFSHJ,10/12/2017,35.20679389,-101.6002986,Amarillo, TX
80737,MMMMY,CFFLQ,10/12/2017,35.22873611,-101.5991353,Amarillo, TX
81574,LISRE,MOPVE,11/7/2019,33.68491111,-86.78113056,Gardendale, AL
81726,XAYGU,CFBLF,3/5/2015,37.38755139,-122.0155836,Sunnyvale, CA
81727,XUHEZ,CFBLQ,3/5/2015,37.38751278,-122.0155697,Sunnyvale, CA
81837,XAZAF,CFBNV,3/5/2015,37.38687639,-122.0164917,Sunnyvale, CA
82252,CEMID,CFCJL,12/7/2017,41.16801111,-73.70766667,Armonk, NY
82262,JAXUB,CFCHW,12/7/2017,41.04188889,-73.61121111,Greenwich, CT
82264,LIPXU,CFCHQ,12/7/2017,41.16998889,-73.65819722,Bedford, NY
82266,LUYXU,CFFBH,12/7/2017,41.03123889,-73.56494444,Greenwich, CT
82270,YUSCU,CFDRX,12/7/2017,41.11781667,-73.82216389,Pleasantville, NY
82929,IWXOF,CFCGW,3/2/2017,29.43376667,-98.40974722,San Antonio, TX
82981,ZAXUD,CFCHB,3/2/2017,29.49293889,-98.34959722,San Antonio, TX
82982,OLUMY,CFCGX,3/2/2017,29.52899167,-98.27836667,JBSA Randolph, TX
83027,IQOXI,CFCGZ,3/2/2017,29.50773333,-98.376075,San Antonio, TX
83311,IXIWY,CFCGS,3/2/2017,29.63584444,-98.54105556,San Antonio, TX
83312,UQOPY,CFCGV,3/2/2017,29.56116944,-98.57379167,San Antonio, TX
83488,OYVOP,CFBLP,1/8/2015,43.87653889,-102.9337528,Rapid City, SD
83806,JISAN,JERZE,12/7/2017,39.21527778,-94.75235833,Parkville, MO
83911,BXCKB,CFVQF,10/12/2017,38.49516111,-91.96338056,Loose Creek, MO
84001,BXCNB,CFDWM,1/3/2019,42.11500556,-89.34028611,Leaf River, IL
84132,BXCND,CFVNZ,9/15/2016,42.43655556,-85.09103889,Bellevue, MI
84455,CEXIK,CFDTG,7/19/2018,37.64544444,-77.42697222,Richmond, VA
84793,DMVDB,CFVDB,5/24/2018,41.62517222,-81.45564167,Willowick, OH
84993,DRFTR,BDGER,10/7/2021,47.58627222,-111.2956472,Great Falls, MT
85003,EWVOV,CFVDM,8/17/2017,47.46653611,-111.4851694,Ulm, MT
85004,SUWFY,CFRKN,8/17/2017,47.40297778,-111.3913611,Ulm, MT
85013,YIFYU,CFFPD,1/8/2015,47.55779722,-111.3470889,Great Falls, MT
85014,EZEJE,CFFPF,1/8/2015,47.49411389,-111.2533,Great Falls, MT
85015,VULUJ,CFFPG,1/8/2015,47.50086944,-111.5804194,Vaughn, MT
85315,WURIV,NUBRY,2/25/2021,42.78575556,-70.85576111,Newbury, MA
85392,TFTBP,CFCDJ,5/26/2016,34.24551389,-118.5127972,Los Angeles, CA
85519,CAXUS,MALLY,7/19/2018,42.12710833,-86.30576389,Benton Harbor, MI
85649,EYAXO,CFDXW,4/25/2019,25.63451944,-80.63488611,N/A,
85776,VUMUF,CFVKD,12/7/2017,44.18671667,-123.2755278,Junction City, OR
85778,IVUQO,CFPKQ,12/7/2017,44.18761111,-123.1643608,Junction City, OR
85871,ZARUN,NYATE,2/23/2023,34.996475,-89.429625,Moscow, TN
85912,DMVBD,CFTZC,12/10/2015,41.59167222,-71.284325,Portsmouth, RI
85930,XEXMA,CFVPG,12/7/2017,44.04283611,-123.0959556,Eugene, OR
85949,YIVUT,CFFSV,12/7/2017,44.03844722,-123.299675,Veneta, OR
85960,XOJEZ,CFVHV,12/7/2017,44.04011111,-123.0800528,Eugene, OR
85969,DMGBD,CFDZJ,9/12/2019,26.49030556,-81.98121111,Iona, FL
86002,YIQRY,CFRRP,12/7/2017,44.18490333,-123.1495958,Junction City, OR
86003,OVLUJ,CFVHN,12/7/2017,44.18398722,-123.2584606,Cheshire, OR
86008,OJGEB,CFVFF,12/7/2017,44.16378,-122.9854936,Eugene, OR
86067,DNBCD,CFCDV,5/26/2016,41.89510278,-71.28231667,Rehoboth, MA
86326,XOBIJ,CFFRC,3/29/2018,41.90223,-72.81357278,Simsbury, CT
86332,JUZBU,CFFRB,3/29/2018,41.84398528,-72.73378167,Bloomfield, CT
86356,YUZVU,CFFRF,3/29/2018,41.97322806,-72.56429556,Enfield, CT
86362,ZEGIG,CFFRD,3/29/2018,42.03159639,-72.6441075,Suffield, CT
86491,OTYIG,CFBLM,12/31/2020,33.39086111,-97.19378333,Sanger, TX
86623,CBOYD,LMOND,2/1/2018,28.56894444,-81.27053333,Orlando, FL
86670,XUWMU,CFRVG,12/7/2017,44.18334806,-123.1487836,Junction City, OR
86940,WOSUX,CFLFG,12/7/2017,44.04349444,-123.0966,Eugene, OR
86945,UVUSY,CFPKB,12/7/2017,44.04205278,-123.0988917,Eugene, OR
86946,VIYDU,CFPGT,12/7/2017,44.04159444,-123.3223639,Veneta, OR
86947,ZOXAL,CFVDJ,12/7/2017,44.04031944,-123.3203694,Veneta, OR
87109,XENYI,CFFLS,4/27/2017,40.95823333,-92.25451944,Ashland, IA
87383,OWYOV,CFVPH,1/7/2016,45.621925,-88.15133333,Goodman, WI
87542,CHYAN,ISLAY,5/26/2016,42.49622778,-71.06087778,Wakefield, MA
87543,FAKKE,SEHAG,5/26/2016,42.46803889,-70.78505278,Marblehead, MA
87546,HILLL,LWLND,5/26/2016,42.58237778,-71.01840833,Middleton, MA
87548,MISTK,SPYSD,5/26/2016,42.44956944,-71.02701389,Saugus, MA
87551,RSVOR,HRRIS,5/26/2016,42.461325,-71.156025,Woburn, MA
91081,RSDXF,CFFRX,3/24/2022,40.26043889,-104.9237917,Platteville, CO
91162,KNDCS,CFCGQ,6/22/2017,31.03588056,-83.75110833,Pavo, GA
91376,LAIRY,PECCH,2/28/2019,35.01561056,-81.68276778,Gaffney, SC
91921,YOLGU,BRROS,4/25/2019,32.66140722,-83.69288583,Centerville, GA
92723,FASOP,CHLMR,7/14/2022,34.71918056,-89.30255833,Potts Camp, MS
93074,YOKUV,LESKR,6/25/2015,29.96071944,-95.959225,Waller, TX
93194,FLAIL,DEELO,12/31/2020,40.14706944,-104.2373306,Roggen, CO
93524,ZATMA,CHIAP,1/5/2017,30.54942778,-97.98935556,Lago Vista, TX
93525,DIFFA,AWALT,1/5/2017,30.69750556,-98.047425,Bertram, TX
93543,CENTN,AFTRR,2/23/2023,39.63959694,-104.8540378,Denver, CO
93766,HASHE,JURKY,9/10/2020,39.55549444,-104.1908389,Deer Trail, CO
94629,ARKKK,ARRKK,5/19/2022,42.06347778,-75.31678056,Kelsey, NY
95154,BRNKO,VONNN,6/22/2017,39.74757222,-105.4340028,Central City, CO
95195,YUPUT,THARP,1/5/2017,30.59940889,-98.0089325,Leander, TX
95469,PYPER,SLEEK,3/26/2020,38.062825,-103.6862028,Rocky Ford, CO
96197,HOKKY,HHOGS,1/5/2017,46.15305556,-92.18944444,Cozy Corner, WI
96685,ZARLA,GAMVE,8/12/2021,26.07808333,-80.39413333,Weston, FL
96889,ZEPOM,ZOMGU,3/30/2017,25.75199444,-80.15488333,Miami, FL
97306,KEEEL,MNDOE,1/30/2020,41.84560833,-87.64708611,Chicago, IL
97363,BUSSE,BOWNN,6/17/2021,43.58568611,-88.67805278,Waupun, WI
97364,CHCGO,MITEE,9/15/2016,42.70158889,-90.27944167,Belmont, WI
98338,DREWD,MOWSR,6/15/2023,42.54815556,-88.39603333,Pell Lake, WI
98440,CRNKY,EMGEE,6/25/2015,30.78353056,-93.82808889,Newton, TX
98441,FRAGL,DOOTL,6/25/2015,30.76306667,-94.22066389,Spurger, TX
98446,MENTL,DLAKE,6/25/2015,30.97224722,-93.95836667,Jasper, TX
98451,NUTZZ,MURFF,6/25/2015,30.81971389,-94.29970556,Woodville, TX
98455,PROZC,SCHEX,6/25/2015,30.66659167,-94.14875,Spurger, TX
98458,WHACK,ZEEKK,6/25/2015,30.53579444,-94.50413611,Wildwood, TX
98469,JAWNS,RIIGG,3/5/2015,28.90241111,-95.61704444,Cedar Lake, TX
98580,TBAGG,WUUDZ,1/8/2015,30.57035,-96.14360278,College Station, TX
98626,TWSTD,GESNR,6/25/2015,30.40216111,-94.70001667,Votaw, TX
98682,GLAMM,RIDLR,7/21/2016,29.78034167,-95.70450556,Houston, TX
98690,PSYCO,KENNN,6/25/2015,30.28633333,-94.85310833,Cleveland, TX
98821,NEEKO,TILRY,5/19/2022,29.99332222,-95.16924722,Humble, TX
98907,BOOZZ,SOULL,1/8/2015,29.51252778,-94.57974722,Bolivar Peninsula, TX
99296,FEGED,DUNZE,7/14/2022,44.96045833,-85.58681111,Suttons Bay, MI
99303,VPEET,JTUNE,11/10/2016,36.36018611,-96.415375,Hominy, OK
99304,VPATH,BMART,11/10/2016,36.13090278,-96.28282222,Mannford, OK
99428,JDDUB,CRSTY,1/8/2015,29.63864167,-95.60029444,Sugar Land, TX
99581,CLBRN,GRNND,11/30/2023,35.05493889,-89.85681667,Memphis, TN
99915,CAXOV,FLLAM,10/5/2023,34.41264167,-89.53389167,Oxford, MS
99966,ZERSU,MNING,10/5/2023,34.3850025,-89.59331944,Oxford, MS
99969,WUSVO,SWAYZ,10/5/2023,34.38363556,-89.48013167,Oxford, MS
100031,CUKDO,HASOK,3/2/2017,27.40000278,-80.61419444,Fort Pierce, FL
100195,OYILA,TEEES,10/15/2015,32.27063056,-108.2584639,Wilna, NM
100296,ZORAF,HHOTY,10/5/2023,34.60392222,-89.51394167,Laws Hill, MS
100351,MOPIE,TAAAP,3/2/2017,34.79040278,-115.8197944,N/A,
100598,NEWMX,BOXXR,6/25/2015,32.43767778,-109.7549389,Raso, AZ
100643,DYREK,HULZE,6/25/2015,33.65766389,-100.2216972,Guthrie, TX
100847,BLDOE,KIILO,8/20/2015,32.15926667,-97.76236667,Glen Rose, TX
100864,TRYST,CRIKT,3/31/2016,33.00071389,-96.52578056,Wylie, TX
100982,SANGR,TRUUK,6/25/2015,33.38942778,-97.27366389,Sanger, TX
101106,NAAVY,SAYLR,1/5/2017,33.62916389,-95.70140833,Brookston, TX
101154,BERIE,VEEYO,5/26/2016,32.26893333,-95.93274167,Athens, TX
101165,KLNDR,BEREE,5/26/2016,32.27708611,-96.32570556,Seven Points, TX
101309,GENII,ELRAY,10/12/2017,33.53652972,-84.6507475,Palmetto, GA
101396,MYAKL,FRNNY,10/15/2015,37.55778611,-121.9994167,Fremont, CA
101480,GOLDR,JOLAR,5/21/2020,33.73348056,-111.8503083,Scottsdale, AZ
101636,NUUTT,URRSA,6/25/2015,37.60311111,-122.3378417,Burlingame, CA
101638,PIGYY,ORYAN,6/25/2015,37.60492222,-122.3366111,Burlingame, CA
101645,TWINK,GALOO,6/25/2015,37.73114722,-122.3312167,San Francisco, CA
101833,MSTLO,GABOO,7/16/2020,30.92405833,-97.31900833,Sparks, TX
101839,BBACH,DBOYS,12/7/2017,29.71382778,-95.68706944,Houston, TX
101942,JESSO,ZENZI,12/7/2017,30.28853889,-96.05843056,Navasota, TX
102017,TRUIZ,STOLI,5/26/2016,42.74076389,-73.11452222,Clarksburg, MA
102027,UROWT,AUTUM,5/26/2016,42.550325,-71.59232222,Devens, MA
102065,GIGTY,RUIZE,5/26/2016,41.47934167,-72.20942778,Montville, CT
102123,KLIKS,MOHLR,7/21/2016,39.56838333,-79.602225,Lenox, WV
102342,HAILI,DRWUD,11/10/2016,39.23885,-86.80261667,Spencer, IN
102620,ETANE,DUNJE,6/20/2019,39.85441028,-86.34691639,Indianapolis, IN
102637,GEEHH,PYLLE,9/13/2018,38.45333333,-122.42865,Rutherford, CA
102644,PIRCH,SARLY,2/4/2016,39.20621389,-76.78169444,Elkridge, MD
102723,JJOBS,GGUGL,8/20/2015,37.12546667,-121.8595,San Jose, CA
102767,DIXXE,BOOCK,10/15/2015,38.40954167,-76.71402778,Mechanicsville, MD
102767,BOOCK,AMEEE,12/31/2020,38.40954167,-76.71402778,Mechanicsville, MD
102784,PAAMY,NUSSS,1/5/2017,33.287175,-96.56324722,Melissa, TX
102899,MIARM,SKIZM,12/10/2015,37.13184167,-121.2568778,Bell Station, CA
102948,VIJQU,SKINI,2/1/2018,38.73590278,-94.89166389,Spring Hill, KS
103248,BACKK,ADOWN,7/21/2016,35.43809444,-81.68218611,Polkville, NC
103367,LADYE,APART,9/10/2020,41.09115,-74.25605278,Ringwood, NJ
103467,NAILR,BASYL,1/5/2017,39.41721944,-77.518725,Middletown, MD
104012,WALKZ,TENSE,11/10/2016,34.30863056,-83.14446667,Franklin Springs, GA
104273,AWFUL,JAAAK,9/13/2018,38.45509722,-77.11263611,Welcome, MD
104274,CALPU,GILBT,9/13/2018,38.50817848,-77.08165848,Compton, MD
104275,BOLME,BYULA,9/13/2018,38.56532468,-77.0757452,Bryans Road, MD
104772,PIPPS,GLAXI,8/17/2017,35.51835833,-81.74804444,Bostic, NC
105014,JIGTO,ENLOW,2/1/2018,28.60398889,-81.17808889,Orlando, FL
105275,PAALA,WRGNZ,10/12/2017,33.37887222,-83.6709,Monticello, GA
105416,ONAGY,GLNCH,7/19/2018,38.57382778,-85.64774444,Marysville, IN
105598,SYKOE,SIZOR,10/10/2019,41.94476333,-83.79336639,Britton, MI
105798,KRAKR,MDWAY,2/1/2018,34.97513889,-119.0638833,Pine Mountain Club, CA
106066,YELLA,CHURO,2/1/2018,33.94899444,-116.3303861,Sky Valley, CA
106340,WYYNN,ZIGGG,2/28/2019,36.38436667,-114.4578389,Stewarts Point, NV
107942,NARWL,FOLET,12/5/2019,37.27478056,-122.0792944,Cupertino, CA
108138,WHHAT,EEEZI,10/10/2019,41.225875,-82.24545278,Pittsfield, OH
108145,MYMOM,BUCKN,10/10/2019,41.07831667,-82.55154444,Greenwich, OH
108146,THATZ,FIYUR,10/10/2019,41.29303611,-82.64695,Norwalk, OH
108192,AYRTN,SINKR,8/15/2019,40.45129167,-84.38520278,New Bremen, OH
108239,LAZYI,SWNDL,8/15/2019,42.2155,-83.0729,Windsor, ON
108243,LWEMA,LNCON,8/15/2019,42.24371944,-81.5176,N/A,
108387,CCRIS,TINDR,10/10/2019,43.13741667,-84.86098333,Hubbardston, MI
108530,TILTD,IYLGO,10/10/2019,42.78117778,-84.66925278,Watertown Township, MI
109668,BIIKE,BBULL,9/10/2020,40.01002222,-103.6396417,Woodrow, CO
109674,BAACN,DIYAP,11/3/2022,40.97473333,-93.79049722,Osceola, IA
110752,EXWNG,XXWNG,12/31/2020,41.47022778,-105.3673306,Laramie, WY
110785,YAGUG,RONNI,2/23/2023,39.49976944,-104.8475778,Lone Tree, CO
111390,YLEEE,PRONI,10/5/2023,34.56128611,-77.67441389,Holly Ridge, NC
111422,ZILLS,WAALT,10/5/2023,33.79241111,-77.86905278,Bald Head Island, NC
111601,JEUDY,SPACY,3/24/2022,39.99649083,-82.66761139,Pataskala, OH
201379,CFVZD,WAZUR,4/20/2023,54.69786944,-131.0457,N/A,
201930,WLBIR,EZEEE,4/20/2023,35.807025,-101.3819583,Stinnett, TX
203015,UKCEB,WARMM,11/30/2023,39.25897639,-94.62725028,Kansas City, MO
203022,IDXOJ,VVEST,11/30/2023,39.29790333,-94.84029222,Platte City, MO
203027,ZULEP,HELAN,11/30/2023,39.24816722,-94.60655333,Kansas City, MO
203033,JILGU,WUZBY,11/30/2023,39.29712639,-94.81652389,Platte City, MO
203038,UTPIQ,MYYLA,11/30/2023,39.32453278,-94.8109025,Kansas City, MO
203050,NIVME,SWETR,11/30/2023,39.28091222,-94.60795056,Kansas City, MO
203060,MAGKS,SOKKS,11/30/2023,39.30944306,-94.83926806,Platte City, MO